NORAD_CAT_ID,OBJECT_NAME,OBJECT_TYPE,EPOCH,MEAN_MOTION,ECCENTRICITY,INCLINATION,RA_OF_ASC_NODE,ARG_OF_PERICENTER,MEAN_ANOMALY,BSTAR,MEAN_MOTION_DOT,MEAN_MOTION_DDOT,TLE_LINE0,TLE_LINE1,TLE_LINE2,SEMIMAJOR_AXIS,PERIOD,APOGEE,PERIGEE,DECAYED
51864.0,STARLINK-3548,PAYLOAD,2024-03-20 22:32:14,15.08840215,0.0001406,53.2192,355.6381,100.4264,259.6887,2.2987e-05,7.8e-07,0.0,0 STARLINK-3548,1 51864U 22022N   24080.93906010  .00000078  00000-0  22987-4 0  9991,2 51864  53.2192 355.6381 0001406 100.4264 259.6887 15.08840215114653,6917.88,95.438,540.717,538.772,0.0
51864.0,STARLINK-3548,PAYLOAD,2024-03-21 03:18:24,15.08835099,0.0001201,53.2179,354.7463,94.3355,265.7774,-9.7529e-05,-1.839e-05,0.0,0 STARLINK-3548,1 51864U 22022N   24081.13777795 -.00001839  00000-0 -97529-4 0  9992,2 51864  53.2179 354.7463 0001201  94.3355 265.7774 15.08835099114684,6917.895,95.438,540.591,538.93,0.0
51864.0,STARLINK-3548,PAYLOAD,2024-03-21 11:15:20,15.08828305,0.0001208,53.2179,353.2591,98.579,261.5339,-0.00014442,-2.585e-05,0.0,0 STARLINK-3548,1 51864U 22022N   24081.46898338 -.00002585  00000-0 -14442-3 0  9996,2 51864  53.2179 353.2591 0001208  98.5790 261.5339 15.08828305114735,6917.916,95.438,540.617,538.945,0.0
51864.0,STARLINK-3548,PAYLOAD,2024-03-21 22:23:01,15.08849102,9.99e-05,53.218,351.1799,86.6188,273.4918,-0.0001391,-2.501e-05,0.0,0 STARLINK-3548,1 51864U 22022N   24081.93266191 -.00002501  00000-0 -13910-3 0  9991,2 51864  53.2180 351.1799 0000999  86.6188 273.4918 15.08849102114800,6917.853,95.437,540.409,539.026,0.0
51864.0,STARLINK-3548,PAYLOAD,2024-03-22 01:33:47,15.08855737,0.0001327,53.2187,350.5843,92.2882,267.8262,0.00016263,2.302e-05,0.0,0 STARLINK-3548,1 51864U 22022N   24082.06513052  .00002302  00000-0  16263-3 0  9998,2 51864  53.2187 350.5843 0001327  92.2882 267.8262 15.08855737114822,6917.832,95.437,540.615,538.779,0.0
51864.0,STARLINK-3548,PAYLOAD,2024-03-22 22:13:49,15.08841035,0.0001757,53.2194,346.7185,64.1932,295.9241,0.00023871,3.513e-05,0.0,0 STARLINK-3548,1 51864U 22022N   24082.92626445  .00003513  00000-0  23871-3 0  9992,2 51864  53.2194 346.7185 0001757  64.1932 295.9241 15.08841035114956,6917.877,95.437,540.958,538.527,0.0
51864.0,STARLINK-3548,PAYLOAD,2024-03-23 02:59:58,15.08851194,0.0001546,53.2205,345.8216,78.1873,281.9292,0.0003527,5.331e-05,0.0,0 STARLINK-3548,1 51864U 22022N   24083.12497799  .00005331  00000-0  35270-3 0  9999,2 51864  53.2205 345.8216 0001546  78.1873 281.9292 15.08851194114980,6917.846,95.437,540.781,538.642,0.0
51864.0,STARLINK-3548,PAYLOAD,2024-03-23 22:04:36,15.08840875,0.0001592,53.2192,342.2594,76.5099,283.6071,7.0756e-05,8.38e-06,0.0,0 STARLINK-3548,1 51864U 22022N   24083.91986469  .00000838  00000-0  70756-4 0  9999,2 51864  53.2192 342.2594 0001592  76.5099 283.6071 15.08840875115101,6917.878,95.437,540.844,538.641,0.0
51864.0,STARLINK-3548,PAYLOAD,2024-03-24 02:50:45,15.08851063,0.0001711,53.2207,341.3562,109.2218,250.896,7.3405e-05,8.81e-06,0.0,0 STARLINK-3548,1 51864U 22022N   24084.11857661  .00000881  00000-0  73405-4 0  9995,2 51864  53.2207 341.3562 0001711 109.2218 250.8960 15.08851063115130,6917.847,95.437,540.895,538.528,0.0
51864.0,STARLINK-3548,PAYLOAD,2024-03-24 21:55:22,15.0886023,0.0001743,53.2198,337.79,98.217,261.902,0.00020812,3.028e-05,0.0,0 STARLINK-3548,1 51864U 22022N   24084.91345134  .00003028  00000-0  20812-3 0  9999,2 51864  53.2198 337.7900 0001743  98.2170 261.9020 15.08860230115252,6917.819,95.436,540.889,538.478,0.0
51864.0,STARLINK-3548,PAYLOAD,2024-03-24 23:30:44,15.08870134,0.0001239,53.2184,337.5019,81.5574,278.5558,0.00030815,4.624e-05,0.0,0 STARLINK-3548,1 51864U 22022N   24084.97968693  .00004624  00000-0  30815-3 0  9993,2 51864  53.2184 337.5019 0001239  81.5574 278.5558 15.08870134115264,6917.788,95.436,540.51,538.796,0.0
51864.0,STARLINK-3548,PAYLOAD,2024-03-25 20:10:46,15.08844233,0.0001306,53.2185,333.6349,92.4538,267.6603,-4.1007e-05,-9.41e-06,0.0,0 STARLINK-3548,1 51864U 22022N   24085.84081455 -.00000941  00000-0 -41007-4 0  9998,2 51864  53.2185 333.6349 0001306  92.4538 267.6603 15.08844233115399,6917.867,95.437,540.636,538.829,0.0
51864.0,STARLINK-3548,PAYLOAD,2024-03-25 21:46:09,15.0884771,0.0001374,53.2184,333.3373,96.6665,263.4483,-3.3199e-05,-8.16e-06,0.0,0 STARLINK-3548,1 51864U 22022N   24085.90705373 -.00000816  00000-0 -33199-4 0  9991,2 51864  53.2184 333.3373 0001374  96.6665 263.4483 15.08847710115409,6917.857,95.437,540.672,538.771,0.0
51864.0,STARLINK-3548,PAYLOAD,2024-03-26 08:53:51,15.08837959,0.0001379,53.2166,331.251,64.7317,295.3818,-7.4106e-05,-1.467e-05,0.0,0 STARLINK-3548,1 51864U 22022N   24086.37073697 -.00001467  00000-0 -74106-4 0  9996,2 51864  53.2166 331.2510 0001379  64.7317 295.3818 15.08837959115471,6917.887,95.438,540.706,538.798,0.0
51864.0,STARLINK-3548,PAYLOAD,2024-03-26 21:36:57,15.08829119,0.0001508,53.2175,328.8765,101.6928,258.4233,-0.0002041,-3.534e-05,0.0,0 STARLINK-3548,1 51864U 22022N   24086.90066803 -.00003534  00000-0 -20410-3 0  9991,2 51864  53.2175 328.8765 0001508 101.6928 258.4233 15.08829119115557,6917.914,95.438,540.822,538.735,0.0
51864.0,STARLINK-3548,PAYLOAD,2024-03-26 23:12:20,15.08830121,0.0001255,53.2166,328.581,75.6518,284.4613,-0.00017543,-3.078e-05,0.0,0 STARLINK-3548,1 51864U 22022N   24086.96690898 -.00003078  00000-0 -17543-3 0  9990,2 51864  53.2166 328.5810 0001255  75.6518 284.4613 15.08830121115566,6917.911,95.438,540.644,538.907,0.0
51864.0,STARLINK-3548,PAYLOAD,2024-03-27 08:44:40,15.08829869,0.0001282,53.2169,326.7971,80.6603,279.4534,-0.0001165,-2.141e-05,0.0,0 STARLINK-3548,1 51864U 22022N   24087.36435197 -.00002141  00000-0 -11650-3 0  9997,2 51864  53.2169 326.7971 0001282  80.6603 279.4534 15.08829869115628,6917.911,95.438,540.663,538.889,0.0
51864.0,STARLINK-3548,PAYLOAD,2024-03-27 23:03:08,15.08850378,0.0001442,53.2183,324.1239,92.4447,267.671,-0.00010311,-1.929e-05,0.0,0 STARLINK-3548,1 51864U 22022N   24087.96050974 -.00001929  00000-0 -10311-3 0  9995,2 51864  53.2183 324.1239 0001442  92.4447 267.6710 15.08850378115712,6917.849,95.437,540.711,538.716,0.0
51864.0,STARLINK-3548,PAYLOAD,2024-03-28 08:35:27,15.08842105,0.0001089,53.217,322.336,84.8179,275.2937,0.00010871,1.443e-05,0.0,0 STARLINK-3548,1 51864U 22022N   24088.35795163  .00001443  00000-0  10871-3 0  9995,2 51864  53.2170 322.3360 0001089  84.8179 275.2937 15.08842105115778,6917.874,95.437,540.492,538.986,0.0
51864.0,STARLINK-3548,PAYLOAD,2024-03-28 22:53:55,15.08842408,0.0001133,53.2176,319.6608,88.0911,272.0211,0.00023277,3.419e-05,0.0,0 STARLINK-3548,1 51864U 22022N   24088.95411337  .00003419  00000-0  23277-3 0  9998,2 51864  53.2176 319.6608 0001133  88.0911 272.0211 15.08842408115864,6917.873,95.437,540.522,538.954,0.0
51864.0,STARLINK-3548,PAYLOAD,2024-03-29 08:26:14,15.08836255,0.0001632,53.2172,317.8746,77.4286,282.6888,0.00013856,1.918e-05,0.0,0 STARLINK-3548,1 51864U 22022N   24089.35156143  .00001918  00000-0  13856-3 0  9998,2 51864  53.2172 317.8746 0001632  77.4286 282.6888 15.08836255115921,6917.892,95.438,540.886,538.628,0.0
51864.0,STARLINK-3548,PAYLOAD,2024-03-29 22:44:42,15.08845069,0.0001191,53.2184,315.2013,80.396,279.7166,5.4645e-05,5.82e-06,0.0,0 STARLINK-3548,1 51864U 22022N   24089.94771674  .00000582  00000-0  54645-4 0  9993,2 51864  53.2184 315.2013 0001191  80.3960 279.7166 15.08845069116015,6917.865,95.437,540.554,538.906,0.0
51864.0,STARLINK-3548,PAYLOAD,2024-03-30 00:20:05,15.08851764,0.0001117,53.2183,314.9008,77.096,283.0157,5.5741e-05,6e-06,0.0,0 STARLINK-3548,1 51864U 22022N   24090.01395166  .00000600  00000-0  55741-4 0  9990,2 51864  53.2183 314.9008 0001117  77.0960 283.0157 15.08851764116023,6917.844,95.437,540.482,538.937,0.0
51864.0,STARLINK-3548,PAYLOAD,2024-03-30 08:17:01,15.08841078,7.36e-05,53.218,313.4164,91.4828,268.6249,4.6851e-05,4.58e-06,0.0,0 STARLINK-3548,1 51864U 22022N   24090.34515765  .00000458  00000-0  46851-4 0  9998,2 51864  53.2180 313.4164 0000736  91.4828 268.6249 15.08841078116079,6917.877,95.437,540.251,539.233,0.0
51864.0,STARLINK-3548,PAYLOAD,2024-03-30 21:00:06,15.08841747,0.0001402,53.2195,311.0363,89.3626,270.7527,2.8748e-05,1.7e-06,0.0,0 STARLINK-3548,1 51864U 22022N   24090.87508058  .00000170  00000-0  28748-4 0  9999,2 51864  53.2195 311.0363 0001402  89.3626 270.7527 15.08841747116158,6917.875,95.437,540.71,538.77,0.0
51864.0,STARLINK-3548,PAYLOAD,2024-03-31 14:29:20,15.08846191,0.0001286,53.2199,307.7654,87.1486,272.9653,0.00016569,2.35e-05,0.0,0 STARLINK-3548,1 51864U 22022N   24091.60371326  .00002350  00000-0  16569-3 0  9996,2 51864  53.2199 307.7654 0001286  87.1486 272.9653 15.08846191116261,6917.861,95.437,540.616,538.837,0.0
51864.0,STARLINK-3548,PAYLOAD,2024-03-31 20:50:53,15.08854997,0.000128,53.2176,306.5762,89.1088,271.0051,0.0003476,5.251e-05,0.0,0 STARLINK-3548,1 51864U 22022N   24091.86867077  .00005251  00000-0  34760-3 0  9993,2 51864  53.2176 306.5762 0001280  89.1088 271.0051 15.08854997116307,6917.835,95.437,540.585,538.814,0.0
51864.0,STARLINK-3548,PAYLOAD,2024-04-01 14:20:08,15.08838546,0.0001236,53.2169,303.3052,73.4691,286.6437,0.00010015,1.306e-05,0.0,0 STARLINK-3548,1 51864U 22022N   24092.59731906  .00001306  00000-0  10015-3 0  9999,2 51864  53.2169 303.3052 0001236  73.4691 286.6437 15.08838546116417,6917.885,95.438,540.605,538.895,0.0
51864.0,STARLINK-3548,PAYLOAD,2024-04-01 20:41:40,15.08842486,0.0001237,53.2171,302.1159,75.4176,284.6953,0.00011658,1.568e-05,0.0,0 STARLINK-3548,1 51864U 22022N   24092.86227754  .00001568  00000-0  11658-3 0  9994,2 51864  53.2171 302.1159 0001237  75.4176 284.6953 15.08842486116459,6917.873,95.437,540.594,538.882,0.0
51864.0,STARLINK-3548,PAYLOAD,2024-04-02 14:10:55,15.08842887,0.0001244,53.2172,298.8453,71.0297,289.083,0.00030858,4.627e-05,0.0,0 STARLINK-3548,1 51864U 22022N   24093.59091809  .00004627  00000-0  30858-3 0  9997,2 51864  53.2172 298.8453 0001244  71.0297 289.0830 15.08842887116562,6917.872,95.437,540.597,538.876,0.0
